SL-12 R/B(2)            
1 15772U 85042D   26156.54547367  .00000150  00000+0  88702-4 0  9996
2 15772  71.1086 262.1115 0035674 345.5096  25.3134 14.22003725126881
SL-14 R/B               
1 15945U 85069B   26156.65861132  .00000486  00000+0  52075-4 0  9994
2 15945  82.5263 302.2090 0017247 260.1953  99.7317 14.86506296185901
SL-14 R/B               
1 16496U 86006B   26156.47707964  .00000616  00000+0  62632-4 0  9995
2 16496  82.5263 177.1333 0075857 342.7974  17.0672 14.86933590162254
SL-14 R/B               
1 16882U 86055B   26156.10028733  .00000456  00000+0  49521-4 0  9992
2 16882  82.5213  44.4964 0020008  46.2597  71.6845 14.85714297132344
SL-14 R/B               
1 17567U 87024B   26156.30063788  .00000387  00000+0  41198-4 0  9996
2 17567  82.5285  10.4242 0017532 335.1588  24.8783 14.86205128101148
COSMOS 1833             
1 17589U 87027A   26156.35716293  .00000273  00000+0  17141-3 0  9998
2 17589  70.9149 141.7350 0022515  74.8644 285.4965 14.13041201 22708
SL-16 R/B               
1 17590U 87027B   26156.56973817  .00000231  00000+0  13822-3 0  9996
2 17590  71.0027  91.3090 0005920 326.2871  33.7876 14.17170560 27799
SL-14 R/B               
1 17912U 87038B   26156.40795541  .00000363  00000+0  39216-4 0  9997
2 17912  82.5017 214.1669 0018000 231.7372 128.2225 14.85437991 92259
SL-14 R/B               
1 18153U 87055B   26156.57163164  .00000508  00000+0  55506-4 0  9993
2 18153  82.4995 266.1781 0022161  83.6757 276.6983 14.85702429 82986
SL-14 R/B               
1 18749U 88001B   26156.37077137  .00000503  00000+0  55315-4 0  9991
2 18749  82.5123 112.8900 0016814 312.0902  47.8883 14.85600597 55047
SL-16 R/B               
1 19120U 88039B   26156.49460294  .00000139  00000+0  88318-4 0  9993
2 19120  71.0150 242.8815 0022891 210.3629 149.6172 14.19628272970844
COSMOS 1953             
1 19210U 88050A   26155.72235272  .00008337  00000+0  28731-3 0  9997
2 19210  82.5084  70.6010 0011083 165.7673 194.3882 15.29797469 51082
COSMOS 1975             
1 19573U 88093A   26156.04909660  .00007632  00000+0  26819-3 0  9993
2 19573  82.5199  29.9102 0010152 215.5540 144.5025 15.29163435 32752
SL-16 R/B               
1 19650U 88102B   26156.49185395  .00000062  00000+0  55543-4 0  9997
2 19650  71.0003 326.7478 0016134 241.2097 118.7406 14.16166457939325
INTERCOSMOS 24          
1 20261U 89080A   26156.42053288  .00000923  00000+0  26239-3 0  9996
2 20261  82.6075  47.2997 1188308  89.1843 284.4915 12.59642417677847
SL-14 R/B               
1 20262U 89080C   26156.64285859  .00000509  00000+0  15163-3 0  9996
2 20262  82.5915 116.7235 1229421 343.8134  12.6734 12.50562345671141
DELTA 1 R/B             
1 20323U 89089B   26156.49383192  .00000367  00000+0  99479-4 0  9990
2 20323  97.0640 349.9229 0068244 203.9781 155.8235 14.50723341908466
ARIANE 40 R/B           
1 20443U 90005H   26156.44012456  .00000272  00000+0  99816-4 0  9990
2 20443  98.2964 214.4209 0008947 304.8596  55.1751 14.39921042905438
DELTA 2 R/B(1)          
1 20453U 90008B   26156.15618110  .00072469  00000+0  57438-3 0  9991
2 20453  35.6010 316.0350 0068569   0.5078 359.5722 15.66926227939812
COSMOS 2058             
1 20465U 90010A   26156.48770735  .00003383  00000+0  19557-3 0  9994
2 20465  82.4665 320.8945 0010535  38.9778 321.2209 15.11934823955507
