OBJECT_NAME,OBJECT_ID,EPOCH,MEAN_MOTION,ECCENTRICITY,INCLINATION,RA_OF_ASC_NODE,ARG_OF_PERICENTER,MEAN_ANOMALY,EPHEMERIS_TYPE,CLASSIFICATION_TYPE,NORAD_CAT_ID,ELEMENT_SET_NO,REV_AT_EPOCH,BSTAR,MEAN_MOTION_DOT,MEAN_MOTION_DDOT
SL-12 R/B(2),1985-042D,2026-06-05T13:05:28.925088,14.22003725,.0035674,71.1086,262.1115,345.5096,25.3134,0,U,15772,999,12688,.88702E-4,.15E-5,0
SL-14 R/B,1985-069B,2026-06-05T15:48:24.018048,14.86506296,.0017247,82.5263,302.2090,260.1953,99.7317,0,U,15945,999,18590,.52075E-4,.486E-5,0
SL-14 R/B,1986-006B,2026-06-05T11:26:59.680896,14.86933590,.0075857,82.5263,177.1333,342.7974,17.0672,0,U,16496,999,16225,.62632E-4,.616E-5,0
SL-14 R/B,1986-055B,2026-06-05T02:24:24.825312,14.85714297,.0020008,82.5213,44.4964,46.2597,71.6845,0,U,16882,999,13234,.49521E-4,.456E-5,0
SL-14 R/B,1987-024B,2026-06-05T07:12:55.112832,14.86205128,.0017532,82.5285,10.4242,335.1588,24.8783,0,U,17567,999,10114,.41198E-4,.387E-5,0
COSMOS 1833,1987-027A,2026-06-05T08:34:18.877152,14.13041201,.0022515,70.9149,141.7350,74.8644,285.4965,0,U,17589,999,2270,.17141E-3,.273E-5,0
SL-16 R/B,1987-027B,2026-06-05T13:40:25.377888,14.17170560,.000592,71.0027,91.3090,326.2871,33.7876,0,U,17590,999,2779,.13822E-3,.231E-5,0
SL-14 R/B,1987-038B,2026-06-05T09:47:27.347424,14.85437991,.0018,82.5017,214.1669,231.7372,128.2225,0,U,17912,999,9225,.39216E-4,.363E-5,0
SL-14 R/B,1987-055B,2026-06-05T13:43:08.973696,14.85702429,.0022161,82.4995,266.1781,83.6757,276.6983,0,U,18153,999,8298,.55506E-4,.508E-5,0
SL-14 R/B,1988-001B,2026-06-05T08:53:54.646368,14.85600597,.0016814,82.5123,112.8900,312.0902,47.8883,0,U,18749,999,5504,.55315E-4,.503E-5,0
SL-16 R/B,1988-039B,2026-06-05T11:52:13.694016,14.19628272,.0022891,71.0150,242.8815,210.3629,149.6172,0,U,19120,999,97084,.88318E-4,.139E-5,0
COSMOS 1953,1988-050A,2026-06-04T17:20:11.275008,15.29797469,.0011083,82.5084,70.6010,165.7673,194.3882,0,U,19210,999,5108,.28731E-3,.8337E-4,0
COSMOS 1975,1988-093A,2026-06-05T01:10:41.946240,15.29163435,.0010152,82.5199,29.9102,215.5540,144.5025,0,U,19573,999,3275,.26819E-3,.7632E-4,0
SL-16 R/B,1988-102B,2026-06-05T11:48:16.181280,14.16166457,.0016134,71.0003,326.7478,241.2097,118.7406,0,U,19650,999,93932,.55543E-4,.62E-6,0
INTERCOSMOS 24,1989-080A,2026-06-05T10:05:34.040832,12.59642417,.1188308,82.6075,47.2997,89.1843,284.4915,0,U,20261,999,67784,.26239E-3,.923E-5,0
SL-14 R/B,1989-080C,2026-06-05T15:25:42.982176,12.50562345,.1229421,82.5915,116.7235,343.8134,12.6734,0,U,20262,999,67114,.15163E-3,.509E-5,0
DELTA 1 R/B,1989-089B,2026-06-05T11:51:07.077888,14.50723341,.0068244,97.0640,349.9229,203.9781,155.8235,0,U,20323,999,90846,.99479E-4,.367E-5,0
ARIANE 40 R/B,1990-005H,2026-06-05T10:33:46.761984,14.39921042,.0008947,98.2964,214.4209,304.8596,55.1751,0,U,20443,999,90543,.99816E-4,.272E-5,0
DELTA 2 R/B(1),1990-008B,2026-06-05T03:44:54.047040,15.66926227,.0068569,35.6010,316.0350,0.5078,359.5722,0,U,20453,999,93981,.57438E-3,.72469E-3,0
COSMOS 2058,1990-010A,2026-06-05T11:42:17.915040,15.11934823,.0010535,82.4665,320.8945,38.9778,321.2209,0,U,20465,999,95550,.19557E-3,.3383E-4,0
